StoreName,StoreType,StoreOpeningDate,Address,City,State,Country,Region,ManagerName
The Radiant Joy,Outlet Stores,2016-11-13,9149 Rollins Point Larsonland  CO 55021,Monroetown,Indiana,Guam,East,Donna
The Happy Touch,MBO,2019-08-21,5695 John Prairie Suite 375 Port Kimberly  PR 35459,Tanyafurt,Connecticut,United Arab Emirates,West,Mark
The Fresh Finds,SMB,2016-12-22,48225 Steven Cliffs Suite 696 Lake Andrewmouth  OH 54366,Montoyabury,West Virginia,Taiwan,South,Brendan
The Radiant Pick,SMB,2015-07-28,30989 Blake Squares Port Thomasshire  KY 69009,South Dylan,Alabama,Norway,East,Jeremiah
The Sweet Garden,Outlet Stores,2021-03-17,Unit 2189 Box 0979 DPO AA 96454,West Josephport,Montana,Jordan,East,Betty
The Pure Flavor,SMB,2021-06-16,USS Sullivan FPO AP 98522,New Carly,Kansas,Angola,South,Kaitlin
The Radiant Leaf,Outlet Stores,2014-05-29,2267 Hernandez Loaf Suite 447 South Jessestad  AL 95512,North Jesse,Florida,New Zealand,South,Kyle
The Morning Joy,Exclusive,2023-10-22,030 Gilbert Lodge Hancockmouth  SD 58212,Austinfort,Washington,Gibraltar,West,Douglas
The Bold Lane,Outlet Stores,2021-11-08,7730 Barnett Parkways West Julie  CA 17385,New Karen,Pennsylvania,Seychelles,South,Vincent
The Happy Finds,MBO,2016-03-09,1552 Thomas Viaduct Suite 995 Lake Karen  NY 23577,West Timothyberg,Delaware,Cuba,West,David
The Fresh Vibe,Exclusive,2018-11-03,16967 Adams Street Townsendstad  ND 44924,South Troymouth,Ohio,Swaziland,West,Michael
The Timeless Lane,SMB,2014-05-25,0313 Walker Knoll Johnberg  ND 59293,North Tara,Massachusetts,Brazil,East,Victor
The Bright Finds,Outlet Stores,2020-12-31,3555 Luis Course Suite 792 Sandraside  AR 68261,West Duaneshire,South Dakota,Kenya,West,Mitchell
The Morning Glow,SMB,2020-10-19,40454 Kimberly Mill Suite 472 East Danaberg  NH 74986,Lake Nicole,Pennsylvania,United Arab Emirates,South,Nicholas
The Gentle Spot,Outlet Stores,2020-07-31,323 Darren Bridge Johnsonfurt  MS 14979,Jacksonshire,Georgia,Italy,East,Judith
The Rustic Moments,MBO,2019-04-20,888 Olsen Corners North Peterborough  AR 77231,North Samuel,Kentucky,Pitcairn Islands,West,Jon
The Serene Moments,Outlet Stores,2023-07-14,Unit 9834 Box 2044 DPO AA 90043,New Lindsayburgh,Florida,Liberia,South,Andrew
The Fresh Finds,SMB,2021-11-03,1363 Woods Pike Marybury  CT 67624,East Carol,Oregon,Argentina,North,John
The Bold Living,MBO,2021-09-01,PSC 5680  Box 9771 APO AP 80810,Port Albertmouth,Vermont,Mauritius,North,Rhonda
The Dream Garden,SMB,2023-05-23,490 Rich Knoll Apt. 983 North Patriciafort  VT 67216,Gardnerview,California,Sri Lanka,East,Brittany
The Radiant Living,SMB,2024-07-29,0451 Alexandra Camp Lake Brianburgh  WY 69502,Charlesside,Washington,Cote d'Ivoire,South,Victoria
The Rustic Flavor,Exclusive,2022-06-01,5137 Guzman Isle Jonathanmouth  SC 96314,South Mitchell,Ohio,Belize,South,Andre
The Spark Hour,Outlet Stores,2016-11-24,30767 Stephanie Forges Suite 983 Charlesfurt  VT 78893,North Robertport,Ohio,Azerbaijan,North,Tony
The Magic Joy,Exclusive,2014-03-10,Unit 5546 Box 5730 DPO AE 91985,Whitneymouth,Utah,Algeria,North,Nicole
The Radiant Glow,SMB,2020-10-22,564 Ward Mountain Apt. 173 Melissabury  MT 39875,Lake Teresa,Maryland,Kazakhstan,South,Stephen
The Trend Leaf,SMB,2018-01-06,PSC 4840  Box 2048 APO AP 28848,South Robert,Oregon,Cambodia,West,Misty
The Soft Finds,Outlet Stores,2021-03-12,638 Sherry Mall Suite 559 West James  RI 95704,New Catherineport,New Hampshire,Bulgaria,East,Dennis
The Luxe Corner,MBO,2021-10-22,3723 Steven River Port Keithview  PA 94245,Port Brooke,Iowa,Bahrain,North,Evan
The Happy Glow,Outlet Stores,2017-11-05,PSC 1697  Box 3739 APO AA 27637,Morgantown,Maine,Syrian Arab Republic,East,Sharon
The Style Spot,Outlet Stores,2015-06-10,12740 Sue Freeway Kennethhaven  MN 14219,Katiemouth,Arizona,Saint Vincent and the Grenadines,South,Nancy
The Pure Flavor,Outlet Stores,2024-06-07,60399 Michael Centers South James  SC 27760,Lake Katherine,Massachusetts,Macao,East,Jeffrey
The Soft Touch,Outlet Stores,2018-10-19,6254 Nancy Plains Georgeland  NH 24302,Marilynville,South Carolina,Somalia,North,William
The Pure Touch,Outlet Stores,2020-08-09,90276 Fox Garden Port Daisy  TN 50568,Buckburgh,Pennsylvania,Mexico,East,Nicole
The Wild Finds,MBO,2021-04-05,06764 Barbara Lights Apt. 542 East Kaitlynmouth  DE 80599,Port Kennethland,Florida,Niue,East,Heather
The Soft Path,Outlet Stores,2020-08-07,75858 Wilson Locks Suite 719 Port Dean  MH 03767,Donaldton,Louisiana,San Marino,West,Melissa
The Sweet Finds,Exclusive,2016-11-16,8185 Joshua Prairie North Michael  IN 41648,Patrickbury,Kentucky,Ethiopia,East,Nicole
The Happy Joy,SMB,2023-12-21,PSC 3874  Box 3897 APO AP 71568,Port Kendra,South Carolina,Holy See (Vatican City State),West,Cassidy
The Happy Glow,MBO,2016-02-22,0523 Paul Field Jamesstad  PR 59396,Greenton,Wyoming,Belize,South,Jeffrey
The Green Living,Outlet Stores,2022-02-28,52925 Anna Course Haileyville  IL 89962,Vargasfort,Pennsylvania,Egypt,North,David
The Trend Leaf,MBO,2021-11-28,83529 William Turnpike Apt. 371 Kennethberg  RI 89527,Hamptonberg,Minnesota,French Polynesia,North,Jose
The Magic Garden,MBO,2019-10-02,68080 William Pass Suite 305 New Amandabury  ME 86889,Debraberg,Utah,Saint Lucia,West,Meghan
The Happy Living,Exclusive,2021-04-15,91434 Oscar Squares Lake Joseph  NV 00987,Theodorehaven,Nevada,Comoros,South,Timothy
The Bold Glow,Exclusive,2019-11-12,0086 Schaefer Wells Suite 480 North Davidport  MO 65263,Christopherchester,Nebraska,Gambia,North,Matthew
The Chic Roots,Outlet Stores,2015-08-26,0623 Thomas Lane West Jeffrey  IN 66885,Port Davidside,Ohio,Mayotte,South,Daniel
The Sweet Lane,MBO,2018-02-11,PSC 0405  Box 2636 APO AE 84130,East Alejandro,Wisconsin,Saint Vincent and the Grenadines,South,Ashlee
The Cozy Bloom,Exclusive,2017-06-09,9677 Cody Lake Suite 110 Smithborough  NH 03316,New Allenfort,California,Suriname,West,James
The Chic Joy,Outlet Stores,2018-03-01,127 Charlotte Wall Lake Carmen  MS 72352,Brownbury,Wyoming,Kenya,West,Elizabeth
The Bright Essence,MBO,2017-07-25,PSC 1159  Box 2590 APO AE 96566,East Elizabeth,Texas,Myanmar,West,Kara
The Bright Pick,SMB,2019-07-06,04885 Johnny Mall Apt. 269 North Michaelland  LA 13033,Hernandezhaven,Florida,Japan,North,Charles
The Serene Finds,SMB,2019-03-21,5810 Omar Brooks West Donaldshire  UT 91161,New Karla,New Mexico,French Guiana,East,Nathan
The Sweet Pick,Outlet Stores,2016-10-23,22377 Williams Via East Jasonborough  AK 95412,New Jade,Nebraska,Turks and Caicos Islands,East,Richard
The Green Finds,Outlet Stores,2019-05-14,11125 Orozco Garden Lake Tamara  IN 15349,Lake Mary,Connecticut,Egypt,East,Bradley
The Happy Lane,Exclusive,2021-10-18,495 Reyes Causeway South Lisa  MP 58675,Johnchester,Nevada,Dominican Republic,East,Gregory
The Soft Hour,MBO,2024-07-06,Unit 1772 Box 6161 DPO AE 85122,South Sarah,Rhode Island,American Samoa,North,Peter
The Sweet Corner,SMB,2015-07-09,48045 Butler Radial Port Betty  AZ 77496,New Johnstad,Montana,Azerbaijan,West,Stephanie
The Serene Haven,SMB,2023-07-16,652 Lopez Street Steinville  MS 13487,North Jason,Wyoming,Slovakia (Slovak Republic),North,Jessica
The Timeless Leaf,MBO,2016-11-21,09961 Scott Mountains South Kaitlin  FM 06497,Chasechester,Tennessee,Guinea-Bissau,North,Joseph
The Morning Lane,SMB,2024-03-03,9983 Kennedy Parks Port Jonbury  SC 89189,Ellisfort,Tennessee,Lao People's Democratic Republic,South,John
The Bold Finds,Exclusive,2022-08-07,2273 Russo Brooks North Brian  AL 84368,South Rachel,Michigan,Congo,North,Kristopher
The Golden Bloom,Outlet Stores,2014-02-17,807 Erin Prairie Suite 770 Armstrongburgh  PW 70844,Matthewport,Vermont,Aruba,East,Kelly
The Pure Finds,SMB,2018-02-24,USNV Warner FPO AP 04335,Haileymouth,North Dakota,Slovakia (Slovak Republic),West,Jeremy
The Chic Essence,Outlet Stores,2016-01-18,78615 Martinez Falls Suite 267 West Aaron  KS 36428,Nunezchester,Oklahoma,China,South,Tracy
The Golden Loft,SMB,2022-08-26,38039 Lauren Trail New Michael  KS 84183,Lynnberg,Georgia,Guinea-Bissau,East,Jaime
The Trend Moments,SMB,2018-06-06,4199 Cindy Park East Jaimechester  MA 92631,Webbview,Maine,Costa Rica,East,Stephen
The Chic Spot,Exclusive,2022-10-16,03548 Vargas Springs Suite 986 South Laura  ND 37190,East Carrie,New Jersey,Romania,West,Nicholas
The Timeless Path,SMB,2024-07-03,505 Scott Route Port Josephmouth  ND 02348,Port Charlottechester,Missouri,Slovakia (Slovak Republic),North,Nicole
The Serene Finds,Outlet Stores,2020-05-15,11477 Sandoval Dam Apt. 534 East Donaldfurt  CO 14750,Robertstad,Maryland,Bolivia,West,Vanessa
The Sweet Path,SMB,2020-12-25,54404 Sierra Spring Longland  NH 69643,North Nicole,Vermont,Serbia,East,Michael
The Golden Market,SMB,2014-03-04,1700 Williams Crescent East Alexandria  NY 11429,Port Donaldfurt,Maine,Croatia,South,Christina
The Trend Corner,MBO,2020-04-12,815 Robert Harbor North Michaelmouth  CO 46075,Lake Michael,Wyoming,Comoros,South,Terri
The Bright Petals,MBO,2021-11-04,97070 Lori Mills East Jamiefort  IA 82008,East Misty,Kentucky,Guyana,South,Sean
The Luxe Pick,Exclusive,2024-04-14,6402 Owen Land Apt. 888 North Sarahstad  MP 92598,Campbellburgh,Louisiana,Kyrgyz Republic,South,Eric
The Gentle Petals,SMB,2022-11-17,54650 Patrick Parkways Suite 994 Amyfurt  DC 81184,Reynoldsmouth,New Hampshire,Tokelau,West,Savannah
The Urban Finds,Exclusive,2020-08-09,72318 Mooney Heights West Tammy  MO 70684,West Katrina,Oregon,Uzbekistan,South,Gina
The Happy Path,MBO,2022-04-20,507 Brown Corner Cathystad  MP 89698,Tiffanyville,Delaware,Mexico,South,Randy
The Sweet Loft,SMB,2015-01-22,43579 Eaton Summit New Melindaborough  OH 59424,South Angela,Wyoming,Cook Islands,South,Daniel
The Wild Pick,MBO,2019-09-21,PSC 9499  Box 7522 APO AA 32182,Lake Michelle,Maine,Argentina,South,Jennifer
The Simple Touch,Outlet Stores,2024-09-11,15834 Michael Parkways New Josephstad  MA 44807,Wrightbury,Utah,Cape Verde,East,Mark
The Style Path,Outlet Stores,2018-06-21,5048 Andersen Knolls Apt. 844 New Terrance  MP 47381,Clarkfort,Michigan,Panama,East,Ashley
The Morning Vibe,Outlet Stores,2019-10-18,2931 Smith Spur Suite 453 Jonathonville  MO 71179,Heatherside,Kansas,Peru,North,Mark
The Sweet Bloom,Exclusive,2015-03-12,1757 Nathaniel Shore Suite 357 Fredview  NM 75240,Harrismouth,Virginia,Christmas Island,East,William
The Morning Touch,SMB,2018-11-24,USNS Wright FPO AE 51854,North Mariahmouth,Tennessee,Spain,East,Cynthia
The Urban Hour,Exclusive,2023-10-18,177 Jennifer Mews Merrittview  VI 42411,Schaeferton,Wisconsin,Tokelau,South,Amy
The Urban Vibe,Exclusive,2017-05-04,67887 Valerie Shoals Nancyview  KS 38424,West Elizabeth,Delaware,Hungary,West,Catherine
The Green Haven,Outlet Stores,2024-07-13,56921 Lawrence Viaduct Suite 616 North Susanton  CT 05740,South Michael,Vermont,Slovakia (Slovak Republic),East,Tracey
The Luxe Touch,Outlet Stores,2023-09-22,96885 Collins Circles Dianeburgh  VI 52001,Thomasville,Louisiana,Italy,West,Dennis
The Sprout Vibe,MBO,2017-10-11,31868 Sherman Stravenue Suite 265 New Monica  WI 40536,New Alexis,Florida,Nicaragua,West,Sarah
The Luxe Glow,Outlet Stores,2015-10-01,81674 Rivera Flat Suite 646 West Valeriehaven  PW 42276,Lake Ricardofurt,Utah,Marshall Islands,East,Christina
The Bold Finds,Outlet Stores,2019-12-22,059 Fletcher Springs Lawsonstad  NV 55281,Lake Elizabeth,Hawaii,Kazakhstan,South,Denise
The Chic Petals,Outlet Stores,2014-04-30,5915 Stephen Squares South Allen  AL 83311,South Brandiport,Colorado,Morocco,South,Deborah
The Morning Loft,MBO,2023-09-20,500 Olson Greens Emilyberg  WI 18795,North Barbaraville,Michigan,Colombia,South,Annette
The Timeless Living,SMB,2021-11-04,307 Forbes Rue Lake Isaiah  NJ 31804,Cherylshire,Nebraska,Kenya,East,Alfred
The Golden Haven,Outlet Stores,2020-10-20,55054 John Courts Tiffanymouth  GA 11997,East Mariahaven,Utah,Bouvet Island (Bouvetoya),South,Amy
The Pure Path,Exclusive,2023-03-02,2794 Stone Lock Suite 091 Port Christopherville  VT 96073,East Claireton,West Virginia,Congo,South,Melissa
The Sweet Lane,SMB,2018-09-13,78921 Blankenship Street Jeffreyshire  GU 17111,North Amy,Arizona,New Caledonia,North,Bruce
The Luxe Path,SMB,2015-04-24,414 Rachel Isle Apt. 793 Deanbury  PA 47277,Hancocktown,West Virginia,Antarctica (the territory South of 60 deg S),South,David
The Serene Lane,Exclusive,2018-04-12,6921 Michael Pike Williamsport  IN 30867,South Kimberly,North Dakota,Hungary,North,Joseph
The Gentle Joy,Outlet Stores,2018-05-17,10373 Drew Terrace North Adrianborough  PW 43815,Camposburgh,Alabama,United States of America,North,Melissa
The Trend Haven,Outlet Stores,2015-01-19,34077 Reese Bridge Suite 797 Christinafort  MD 88328,East Michael,Missouri,Italy,South,James
The Trend Vibe,Outlet Stores,2020-04-12,2587 Kayla Junctions Johnstonside  AS 44988,Timothychester,Nebraska,Egypt,South,Sandra
